{"type": "FeatureCollection", "features": [{"type": "Feature", "properties": {"norad_id": 22490, "name": "SCD 1", "group": "resource", "lat": 19.03737795924729, "lon": -111.1103962532162, "alt_km": 713.5303874223337, "timestamp": "2025-12-25T07:41:09.379283+00:00", "meta": {"OBJECT_NAME": "SCD 1", "OBJECT_ID": "1993-009B", "EPOCH": "2025-12-24T21:37:14.666016", "MEAN_MOTION": 14.46006798, "ECCENTRICITY": 0.00421805, "INCLINATION": 24.9676, "RA_OF_ASC_NODE": 203.6132, "ARG_OF_PERICENTER": 93.4836, "MEAN_ANOMALY": 289.9522, "EPHEMERIS_TYPE": 0, "CLASSIFICATION_TYPE": "U", "NORAD_CAT_ID": 22490, "ELEMENT_SET_NO": 999, "REV_AT_EPOCH": 73586, "BSTAR": 8.128498e-05, "MEAN_MOTION_DOT": 4.83e-06, "MEAN_MOTION_DDOT": 0}, "tle": {"line1": "1 22490U 93009B   25358.90086419  .00000483  00000+0  81285-4 0  9990", "line2": "2 22490  24.9676 203.6132 0042180  93.4836 289.9522 14.46006798735869"}}, "geometry": {"type": "Point", "coordinates": [-111.1103962532162, 19.03737795924729]}}, {"type": "Feature", "properties": {"norad_id": 25397, "name": "TECHSAT 1B (GO-32)", "group": "resource", "lat": -22.59756187234916, "lon": 159.04402110913358, "alt_km": 817.0789142793074, "timestamp": "2025-12-25T07:41:09.379310+00:00", "meta": {"OBJECT_NAME": "TECHSAT 1B (GO-32)", "OBJECT_ID": "1998-043D", "EPOCH": "2025-12-24T20:37:17.748480", "MEAN_MOTION": 14.24380271, "ECCENTRICITY": 0.00016683, "INCLINATION": 98.9932, "RA_OF_ASC_NODE": 342.3516, "ARG_OF_PERICENTER": 37.3772, "MEAN_ANOMALY": 322.7522, "EPHEMERIS_TYPE": 0, "CLASSIFICATION_TYPE": "U", "NORAD_CAT_ID": 25397, "ELEMENT_SET_NO": 999, "REV_AT_EPOCH": 42651, "BSTAR": 5.2942367e-05, "MEAN_MOTION_DOT": 7.6e-07, "MEAN_MOTION_DDOT": 0}, "tle": {"line1": "1 25397U 98043D   25358.85923320  .00000076  00000+0  52942-4 0  9993", "line2": "2 25397  98.9932 342.3516 0001668  37.3772 322.7522 14.24380271426515"}}, "geometry": {"type": "Point", "coordinates": [159.04402110913358, -22.59756187234916]}}, {"type": "Feature", "properties": {"norad_id": 25504, "name": "SCD 2", "group": "resource", "lat": 20.658174923606566, "lon": 118.34832477739299, "alt_km": 725.0220259926728, "timestamp": "2025-12-25T07:41:09.379326+00:00", "meta": {"OBJECT_NAME": "SCD 2", "OBJECT_ID": "1998-060A", "EPOCH": "2025-12-24T13:48:55.433376", "MEAN_MOTION": 14.45429519, "ECCENTRICITY": 0.00170635, "INCLINATION": 24.9954, "RA_OF_ASC_NODE": 68.9145, "ARG_OF_PERICENTER": 78.1649, "MEAN_ANOMALY": 56.1547, "EPHEMERIS_TYPE": 0, "CLASSIFICATION_TYPE": "U", "NORAD_CAT_ID": 25504, "ELEMENT_SET_NO": 999, "REV_AT_EPOCH": 43503, "BSTAR": 7.2332367e-05, "MEAN_MOTION_DOT": 4.41e-06, "MEAN_MOTION_DDOT": 0}, "tle": {"line1": "1 25504U 98060A   25358.57564159  .00000441  00000+0  72332-4 0  9993", "line2": "2 25504  24.9954  68.9145 0017063  78.1649  56.1547 14.45429519435033"}}, "geometry": {"type": "Point", "coordinates": [118.34832477739299, 20.658174923606566]}}, {"type": "Feature", "properties": {"norad_id": 25757, "name": "DLR-TUBSAT", "group": "resource", "lat": -65.0420467796896, "lon": 145.1150812752109, "alt_km": 725.5065398609313, "timestamp": "2025-12-25T07:41:09.379340+00:00", "meta": {"OBJECT_NAME": "DLR-TUBSAT", "OBJECT_ID": "1999-029B", "EPOCH": "2025-12-17T13:22:10.787520", "MEAN_MOTION": 14.52359578, "ECCENTRICITY": 0.00141996, "INCLINATION": 98.6566, "RA_OF_ASC_NODE": 336.2196, "ARG_OF_PERICENTER": 177.8976, "MEAN_ANOMALY": 182.2281, "EPHEMERIS_TYPE": 0, "CLASSIFICATION_TYPE": "U", "NORAD_CAT_ID": 25757, "ELEMENT_SET_NO": 999, "REV_AT_EPOCH": 40688, "BSTAR": 3.7650132e-05, "MEAN_MOTION_DOT": 1.05e-06, "MEAN_MOTION_DDOT": 0}, "tle": {"line1": "1 25757U 99029B   25351.55706930  .00000105  00000+0  37650-4 0  9996", "line2": "2 25757  98.6566 336.2196 0014199 177.8976 182.2281 14.52359578406886"}}, "geometry": {"type": "Point", "coordinates": [145.1150812752109, -65.0420467796896]}}, {"type": "Feature", "properties": {"norad_id": 25994, "name": "TERRA", "group": "resource", "lat": -24.49877046431267, "lon": 54.20389254027244, "alt_km": 695.9348895895555, "timestamp": "2025-12-25T07:41:09.379352+00:00", "meta": {"OBJECT_NAME": "TERRA", "OBJECT_ID": "1999-068A", "EPOCH": "2025-12-24T20:49:05.354976", "MEAN_MOTION": 14.60915016, "ECCENTRICITY": 0.00034339, "INCLINATION": 97.9731, "RA_OF_ASC_NODE": 50.1059, "ARG_OF_PERICENTER": 70.4383, "MEAN_ANOMALY": 44.8464, "EPHEMERIS_TYPE": 0, "CLASSIFICATION_TYPE": "U", "NORAD_CAT_ID": 25994, "ELEMENT_SET_NO": 999, "REV_AT_EPOCH": 38415, "BSTAR": 0.00010734462, "MEAN_MOTION_DOT": 4.81e-06, "MEAN_MOTION_DDOT": 0}, "tle": {"line1": "1 25994U 99068A   25358.86742309  .00000481  00000+0  10734-3 0  9993", "line2": "2 25994  97.9731  50.1059 0003433  70.4383  44.8464 14.60915016384159"}}, "geometry": {"type": "Point", "coordinates": [54.20389254027244, -24.49877046431267]}}, {"type": "Feature", "properties": {"norad_id": 27004, "name": "MAROC-TUBSAT", "group": "resource", "lat": -5.570998411221845, "lon": -12.979748881241, "alt_km": 991.4780327386079, "timestamp": "2025-12-25T07:41:09.379364+00:00", "meta": {"OBJECT_NAME": "MAROC-TUBSAT", "OBJECT_ID": "2001-056D", "EPOCH": "2025-12-24T16:49:19.722144", "MEAN_MOTION": 13.70253456, "ECCENTRICITY": 0.0019266, "INCLINATION": 99.7916, "RA_OF_ASC_NODE": 167.3555, "ARG_OF_PERICENTER": 228.421, "MEAN_ANOMALY": 143.7745, "EPHEMERIS_TYPE": 0, "CLASSIFICATION_TYPE": "U", "NORAD_CAT_ID": 27004, "ELEMENT_SET_NO": 999, "REV_AT_EPOCH": 20229, "BSTAR": 2.304783e-05, "MEAN_MOTION_DOT": -2.6e-07, "MEAN_MOTION_DDOT": 0}, "tle": {"line1": "1 27004U 01056D   25358.70092271 -.00000026  00000+0  23048-4 0  9995", "line2": "2 27004  99.7916 167.3555 0019266 228.4210 143.7745 13.70253456202293"}}, "geometry": {"type": "Point", "coordinates": [-12.979748881241, -5.570998411221845]}}, {"type": "Feature", "properties": {"norad_id": 27424, "name": "AQUA", "group": "resource", "lat": -70.08567480207864, "lon": 116.31653138979813, "alt_km": 695.8905549672972, "timestamp": "2025-12-25T07:41:09.379375+00:00", "meta": {"OBJECT_NAME": "AQUA", "OBJECT_ID": "2002-022A", "EPOCH": "2025-12-24T19:18:33.414624", "MEAN_MOTION": 14.61757572, "ECCENTRICITY": 0.00018094, "INCLINATION": 98.4055, "RA_OF_ASC_NODE": 319.881, "ARG_OF_PERICENTER": 102.1365, "MEAN_ANOMALY": 317.5475, "EPHEMERIS_TYPE": 0, "CLASSIFICATION_TYPE": "U", "NORAD_CAT_ID": 27424, "ELEMENT_SET_NO": 999, "REV_AT_EPOCH": 25779, "BSTAR": 0.00019560508, "MEAN_MOTION_DOT": 9.26e-06, "MEAN_MOTION_DDOT": 0}, "tle": {"line1": "1 27424U 02022A   25358.80455341  .00000926  00000+0  19561-3 0  9999", "line2": "2 27424  98.4055 319.8810 0001809 102.1365 317.5475 14.61757572257795"}}, "geometry": {"type": "Point", "coordinates": [116.31653138979813, -70.08567480207864]}}, {"type": "Feature", "properties": {"norad_id": 28051, "name": "IRS-P6 (RESOURCESAT-1)", "group": "resource", "lat": 30.95166730269203, "lon": 34.17226421451128, "alt_km": 786.6768268593933, "timestamp": "2025-12-25T07:41:09.379386+00:00", "meta": {"OBJECT_NAME": "IRS-P6 (RESOURCESAT-1)", "OBJECT_ID": "2003-046A", "EPOCH": "2025-12-24T23:43:27.182784", "MEAN_MOTION": 14.36079111, "ECCENTRICITY": 0.00648881, "INCLINATION": 98.2158, "RA_OF_ASC_NODE": 38.8266, "ARG_OF_PERICENTER": 144.108, "MEAN_ANOMALY": 333.9347, "EPHEMERIS_TYPE": 0, "CLASSIFICATION_TYPE": "U", "NORAD_CAT_ID": 28051, "ELEMENT_SET_NO": 999, "REV_AT_EPOCH": 15552, "BSTAR": -9.258087e-06, "MEAN_MOTION_DOT": -6.8e-07, "MEAN_MOTION_DDOT": 0}, "tle": {"line1": "1 28051U 03046A   25358.98850906 -.00000068  00000+0 -92581-5 0  9992", "line2": "2 28051  98.2158  38.8266 0064888 144.1080 333.9347 14.36079111155529"}}, "geometry": {"type": "Point", "coordinates": [34.17226421451128, 30.95166730269203]}}, {"type": "Feature", "properties": {"norad_id": 28220, "name": "SHIYAN-1 (SY-1)", "group": "resource", "lat": 62.60017279166003, "lon": -102.87620301716248, "alt_km": 477.53690181149614, "timestamp": "2025-12-25T07:41:09.379397+00:00", "meta": {"OBJECT_NAME": "SHIYAN-1 (SY-1)", "OBJECT_ID": "2004-012A", "EPOCH": "2025-12-24T15:27:59.538240", "MEAN_MOTION": 15.28445805, "ECCENTRICITY": 0.00051133, "INCLINATION": 97.8916, "RA_OF_ASC_NODE": 60.8865, "ARG_OF_PERICENTER": 275.1255, "MEAN_ANOMALY": 84.9399, "EPHEMERIS_TYPE": 0, "CLASSIFICATION_TYPE": "U", "NORAD_CAT_ID": 28220, "ELEMENT_SET_NO": 999, "REV_AT_EPOCH": 18438, "BSTAR": 0.00051605795, "MEAN_MOTION_DOT": 0.00014225, "MEAN_MOTION_DDOT": 0}, "tle": {"line1": "1 28220U 04012A   25358.64443910  .00014225  00000+0  51606-3 0  9999", "line2": "2 28220  97.8916  60.8865 0005113 275.1255  84.9399 15.28445805184384"}}, "geometry": {"type": "Point", "coordinates": [-102.87620301716248, 62.60017279166003]}}, {"type": "Feature", "properties": {"norad_id": 28376, "name": "AURA", "group": "resource", "lat": -15.478790835480632, "lon": -48.07088678587956, "alt_km": 695.0485991137311, "timestamp": "2025-12-25T07:41:09.379408+00:00", "meta": {"OBJECT_NAME": "AURA", "OBJECT_ID": "2004-026A", "EPOCH": "2025-12-24T20:15:05.051808", "MEAN_MOTION": 14.60973195, "ECCENTRICITY": 0.00014315, "INCLINATION": 98.3202, "RA_OF_ASC_NODE": 309.1278, "ARG_OF_PERICENTER": 90.8782, "MEAN_ANOMALY": 269.2582, "EPHEMERIS_TYPE": 0, "CLASSIFICATION_TYPE": "U", "NORAD_CAT_ID": 28376, "ELEMENT_SET_NO": 999, "REV_AT_EPOCH": 14075, "BSTAR": 0.00022235995, "MEAN_MOTION_DOT": 1.042e-05, "MEAN_MOTION_DDOT": 0}, "tle": {"line1": "1 28376U 04026A   25358.84380847  .00001042  00000+0  22236-3 0  9997", "line2": "2 28376  98.3202 309.1278 0001431  90.8782 269.2582 14.60973195140751"}}, "geometry": {"type": "Point", "coordinates": [-48.07088678587956, -15.478790835480632]}}]}